[{"OBJECT_NAME":"STARLINK-31307","OBJECT_ID":"2024-041R","EPOCH":"2026-03-09T22:50:19.570560","MEAN_MOTION":15.27570904,"ECCENTRICITY":0.00019528,"INCLINATION":43.0068,"RA_OF_ASC_NODE":309.0515,"ARG_OF_PERICENTER":269.184,"MEAN_ANOMALY":90.8788,"EPHEMERIS_TYPE":0,"CLASSIFICATION_TYPE":"U","NORAD_CAT_ID":59089,"ELEMENT_SET_NO":999,"REV_AT_EPOCH":11436,"BSTAR":-4.218454e-6,"MEAN_MOTION_DOT":-3.79e-6,"MEAN_MOTION_DDOT":0},{"OBJECT_NAME":"CZ-2C R\/B","OBJECT_ID":"2014-014B","EPOCH":"2026-03-09T23:01:00.862464","MEAN_MOTION":15.34922702,"ECCENTRICITY":0.00700559,"INCLINATION":98.3314,"RA_OF_ASC_NODE":172.135,"ARG_OF_PERICENTER":276.2597,"MEAN_ANOMALY":83.0667,"EPHEMERIS_TYPE":0,"CLASSIFICATION_TYPE":"U","NORAD_CAT_ID":39625,"ELEMENT_SET_NO":999,"REV_AT_EPOCH":65564,"BSTAR":0.0004934259,"MEAN_MOTION_DOT":0.00018031,"MEAN_MOTION_DDOT":0}]
